{"fetched_at":"2026-03-30T06:02:59Z","count":15439,"tles":[{"name":"STARLINK-31708","line1":"1 59439U 24065U   26087.70108065  .00001156  00000+0  51132-4 0  9995","line2":"2 59439  53.1607 193.1146 0000891  60.6090 299.5000 15.30202330111847","category":"Starlink"}]}